      2.10          N: GNSS NAV DATA                        RINEX VERSION / TYPE
fic2rin                                 08/01/2019 00:18:46 PGM / RUN BY / DATE
                                                            END OF HEADER
 5 19  7 31  1 59 44.0-2.854503691196e-07-2.273736754432e-13 0.000000000000e+00
    6.000000000000e+00-7.446875000000e+01 4.493401453921e-09-3.017678603204e+00
   -3.950670361519e-06 5.819287966006e-03 1.231767237186e-05 5.153744178772e+03
    2.663840000000e+05 7.450580596924e-09-3.092288836962e+00-1.117587089539e-07
    9.507312720822e-01 1.402500000000e+02 7.454635573322e-01-7.727107579332e-09
    4.775198906202e-10 1.000000000000e+00 2.064000000000e+03 0.000000000000e+00
    2.400000000000e+00 0.000000000000e+00-1.117587089539e-08 6.000000000000e+00
    2.592000000000e+05 4.000000000000e+00
 6 19  7 31  1 59 44.0-1.006014645100e-05-1.159605744760e-11 0.000000000000e+00
    1.000000000000e+01-1.466250000000e+02 4.124457514496e-09 5.720808838194e-01
   -7.536262273788e-06 1.400379580446e-03 3.674998879433e-06 5.153632812500e+03
    2.663840000000e+05 5.215406417847e-08 2.168550319865e+00-3.352761268616e-08
    9.760227674488e-01 3.124062500000e+02-1.080403847865e+00-8.163554330520e-09
   -2.425101015191e-10 1.000000000000e+00 2.064000000000e+03 0.000000000000e+00
    2.400000000000e+00 0.000000000000e+00 4.190951585770e-09 1.000000000000e+01
    2.592000000000e+05 4.000000000000e+00
 3 19  7 31  2  0  0.0 1.778188161552e-04-2.501110429876e-12 0.000000000000e+00
    2.400000000000e+01-6.725000000000e+01 4.264106188567e-09-7.029565488019e-01
   -3.322958946228e-06 2.403319696896e-03 1.273863017559e-05 5.153745689392e+03
    2.664000000000e+05 6.519258022308e-08-3.064565091071e+00 6.146728992462e-08
    9.638501377128e-01 1.371562500000e+02 6.668693017146e-01-7.701392222470e-09
    5.760954252583e-10 1.000000000000e+00 2.064000000000e+03 0.000000000000e+00
    2.400000000000e+00 0.000000000000e+00 1.862645149231e-09 2.400000000000e+01
    2.592000000000e+05 4.000000000000e+00
 2 19  7 31  2  0  0.0-2.721529453993e-04-8.526512829121e-12 0.000000000000e+00
    1.030000000000e+02-1.195625000000e+02 4.817343518837e-09 5.919551672059e-01
   -6.483867764473e-06 1.895385561511e-02 3.151595592499e-06 5.153756082535e+03
    2.664000000000e+05-2.421438694000e-07 2.106750643215e+00-1.285225152969e-07
    9.554413913861e-01 3.184375000000e+02-1.726079836348e+00-8.722863342271e-09
   -3.264421690552e-10 1.000000000000e+00 2.064000000000e+03 0.000000000000e+00
    3.400000000000e+00 0.000000000000e+00-2.048909664154e-08 1.030000000000e+02
    2.592000000000e+05 4.000000000000e+00
 1 19  7 31  2  0  0.0-8.244253695011e-05-1.102762325900e-11 0.000000000000e+00
    5.300000000000e+01-1.483437500000e+02 4.198389165475e-09 3.242440933137e-01
   -7.735565304756e-06 9.084547986276e-03 4.580244421959e-06 5.153652854919e+03
    2.664000000000e+05-1.676380634308e-08 2.176830820941e+00 1.993030309677e-07
    9.763951971334e-01 3.021875000000e+02 7.442086032984e-01-8.241771874309e-09
   -2.950122884460e-10 1.000000000000e+00 2.064000000000e+03 0.000000000000e+00
    2.400000000000e+00 0.000000000000e+00 5.587935447693e-09 5.300000000000e+01
    2.592000000000e+05 4.000000000000e+00
 7 19  7 31  2  0  0.0-7.524993270636e-05-7.844391802792e-12 0.000000000000e+00
    6.000000000000e+01-1.784375000000e+01 4.983064707504e-09-2.927830847335e-01
   -1.002103090286e-06 1.308802771382e-02 8.145347237587e-06 5.153732135773e+03
    2.664000000000e+05 3.166496753693e-08-9.567214988335e-01 1.247972249985e-07
    9.547843773217e-01 2.176562500000e+02-2.443818021024e+00-8.298917111780e-09
   -8.368205712214e-10 1.000000000000e+00 2.064000000000e+03 0.000000000000e+00
    2.400000000000e+00 0.000000000000e+00-1.117587089539e-08 6.000000000000e+01
    2.592000000000e+05 4.000000000000e+00
 8 19  7 31  2  0  0.0-8.237548172474e-07-1.477928890381e-12 0.000000000000e+00
    7.200000000000e+01 8.825000000000e+01 4.488044087908e-09 2.640409029669e+00
    4.537403583527e-06 4.395908792503e-03 3.222376108170e-07 5.153776163101e+03
    2.664000000000e+05-2.980232238770e-08 1.108984113274e+00 3.725290298462e-09
    9.701337161119e-01 3.789062500000e+02-2.059846338468e-01-8.429636842496e-09
    2.289381076197e-10 1.000000000000e+00 2.064000000000e+03 0.000000000000e+00
    2.400000000000e+00 0.000000000000e+00 5.122274160385e-09 7.200000000000e+01
    2.592000000000e+05 4.000000000000e+00
 4 19  7 31  2  0  0.0 4.116306081414e-05 3.933564585168e-11 0.000000000000e+00
    4.000000000000e+01 1.054062500000e+02 4.536260382024e-09 2.626324908746e+00
    5.256384611130e-06 1.462803187314e-02 8.735805749893e-07 5.153676361084e+03
    2.664000000000e+05-1.490116119385e-08 1.018338544791e+00-2.682209014893e-07
    9.587714566796e-01 3.628437500000e+02 6.722683047533e-01-8.295702692172e-09
    3.185846989029e-10 1.000000000000e+00 2.064000000000e+03 0.000000000000e+00
    2.400000000000e+00 6.300000000000e+01-5.587935447693e-09 4.000000000000e+01
    2.592000000000e+05 4.000000000000e+00
 9 19  7 31  2  0  0.0 3.589568659663e-04-8.640199666843e-12 0.000000000000e+00
    5.400000000000e+01 1.965625000000e+01 5.298077829065e-09 2.902096443280e+00
    1.113861799240e-06 1.234371680766e-03 5.891546607018e-06 5.153616718292e+03
    2.664000000000e+05 9.872019290924e-08-2.032849664325e+00-4.656612873077e-08
    9.522110224969e-01 2.603125000000e+02 1.710912718634e+00-8.282130698273e-09
    4.307322274405e-10 1.000000000000e+00 2.064000000000e+03 0.000000000000e+00
    2.400000000000e+00 0.000000000000e+00 1.396983861923e-09 5.400000000000e+01
    2.592000000000e+05 4.000000000000e+00
22 19  7 31  2  0  0.0-7.379641756415e-04-4.774847184308e-12 0.000000000000e+00
    3.800000000000e+01-8.271875000000e+01 5.039852787241e-09 1.627670375827e+00
   -4.243105649948e-06 7.055552559905e-03 1.270323991776e-05 5.153750867844e+03
    2.664000000000e+05 1.210719347000e-07-3.139963182287e+00-1.043081283569e-07
    9.284317309197e-01 1.192812500000e+02-1.304288172403e+00-8.036406177146e-09
    5.193073455211e-10 1.000000000000e+00 2.064000000000e+03 0.000000000000e+00
    2.400000000000e+00 0.000000000000e+00-1.816079020500e-08 3.800000000000e+01
    2.592000000000e+05 4.000000000000e+00
19 19  7 31  2  0  0.0-2.872599288821e-04 4.888534022029e-12 0.000000000000e+00
    2.100000000000e+01 6.946875000000e+01 4.244819670920e-09-1.070190592088e+00
    3.939494490623e-06 9.581302059814e-03 7.580965757370e-07 5.153640611649e+03
    2.664000000000e+05-1.322478055954e-07 1.223578961489e+00 1.918524503708e-07
    9.818752180383e-01 3.775625000000e+02 1.467506682744e+00-8.430351157964e-09
    2.846547141543e-10 1.000000000000e+00 2.064000000000e+03 0.000000000000e+00
    2.400000000000e+00 0.000000000000e+00-1.536682248116e-08 2.100000000000e+01
    2.592000000000e+05 4.000000000000e+00
18 19  7 31  2  0  0.0 7.409648969769e-05 2.955857780762e-12 0.000000000000e+00
    2.900000000000e+01-1.373125000000e+02 4.716267880059e-09 6.562529959143e-02
   -7.335096597672e-06 1.565123908222e-02 4.231929779053e-06 5.153687397003e+03
    2.664000000000e+05-2.626329660416e-07 2.120310843434e+00 9.126961231232e-08
    9.548988506614e-01 2.975000000000e+02 1.413277098058e+00-8.670003997610e-09
   -2.728685089258e-10 1.000000000000e+00 2.064000000000e+03 0.000000000000e+00
    2.400000000000e+00 0.000000000000e+00-5.587935447693e-09 2.900000000000e+01
    2.592000000000e+05 4.000000000000e+00
12 19  7 31  2  0  0.0 2.187727950513e-04-3.637978807092e-12 0.000000000000e+00
    2.600000000000e+01 1.224687500000e+02 3.704797176816e-09-1.017022013609e+00
    6.373971700668e-06 7.523129577748e-03 1.076981425285e-05 5.153612651825e+03
    2.664000000000e+05 5.587935447693e-08 1.440655070095e-01 1.769512891769e-07
    9.824435324537e-01 1.845000000000e+02 1.105937918456e+00-7.667462237722e-09
   -1.300054152474e-10 1.000000000000e+00 2.064000000000e+03 0.000000000000e+00
    2.400000000000e+00 0.000000000000e+00-1.257285475731e-08 2.600000000000e+01
    2.592000000000e+05 4.000000000000e+00
20 19  7 31  2  0  0.0 5.262312479317e-04 2.273736754432e-13 0.000000000000e+00
    1.800000000000e+01-6.865625000000e+01 4.935205571121e-09-5.605128927547e-02
   -3.648921847343e-06 4.621309344657e-03 1.217424869537e-05 5.153625909805e+03
    2.664000000000e+05 3.725290298462e-09 3.094793300049e+00-9.313225746155e-08
    9.317192516295e-01 1.292812500000e+02 2.398319129973e+00-8.147125074747e-09
    4.057311860468e-10 1.000000000000e+00 2.064000000000e+03 0.000000000000e+00
    2.400000000000e+00 0.000000000000e+00-8.847564458847e-09 1.800000000000e+01
    2.592000000000e+05 4.000000000000e+00
16 19  7 31  2  0  0.0-6.078137084842e-05-3.296918293927e-12 0.000000000000e+00
    9.000000000000e+01 1.495625000000e+02 3.543719038694e-09-2.843584367800e+00
    7.607042789459e-06 1.073520851787e-02 1.069717109203e-05 5.153621364594e+03
    2.664000000000e+05 3.725290298462e-09 1.629558346217e-01-9.313225746155e-08
    9.827701508587e-01 1.845000000000e+02 5.830629542495e-01-7.433523921823e-09
   -4.643050544549e-12 1.000000000000e+00 2.064000000000e+03 0.000000000000e+00
    2.400000000000e+00 0.000000000000e+00-1.071020960808e-08 9.000000000000e+01
    2.592000000000e+05 4.000000000000e+00
10 19  7 31  2  0  0.0-3.483751788735e-05-1.352873368887e-11 0.000000000000e+00
    8.900000000000e+01-5.234375000000e+01 4.183745698373e-09-1.692712206635e+00
   -2.883374691010e-06 4.678510362282e-03 1.242198050022e-05 5.153669145584e+03
    2.664000000000e+05-1.303851604462e-08-3.067764378803e+00-8.195638656616e-08
    9.638578677719e-01 1.398750000000e+02-2.715344208254e+00-7.653890243822e-09
    5.753811097899e-10 1.000000000000e+00 2.064000000000e+03 0.000000000000e+00
    2.400000000000e+00 0.000000000000e+00 1.862645149231e-09 8.900000000000e+01
    2.592000000000e+05 4.000000000000e+00
